[{"OBJECT_NAME":"ONEWEB-0358","OBJECT_ID":"2021-090F","EPOCH":"2025-08-04T14:13:37.402464","MEAN_MOTION":13.20771853,"ECCENTRICITY":0.0001838,"INCLINATION":87.9295,"RA_OF_ASC_NODE":337.5095,"ARG_OF_PERICENTER":103.4472,"MEAN_ANOMALY":256.6867,"EPHEMERIS_TYPE":0,"CLASSIFICATION_TYPE":"U","NORAD_CAT_ID":49284,"ELEMENT_SET_NO":999,"REV_AT_EPOCH":18876,"BSTAR":0.00010507,"MEAN_MOTION_DOT":5.6e-7,"MEAN_MOTION_DDOT":0},{"OBJECT_NAME":"ONEWEB-0359","OBJECT_ID":"2021-090G","EPOCH":"2025-08-04T15:58:09.440256","MEAN_MOTION":13.20771237,"ECCENTRICITY":0.0001594,"INCLINATION":87.9282,"RA_OF_ASC_NODE":337.5062,"ARG_OF_PERICENTER":107.3246,"MEAN_ANOMALY":252.8062,"EPHEMERIS_TYPE":0,"CLASSIFICATION_TYPE":"U","NORAD_CAT_ID":49285,"ELEMENT_SET_NO":999,"REV_AT_EPOCH":18875,"BSTAR":0.00010971,"MEAN_MOTION_DOT":5.8e-7,"MEAN_MOTION_DDOT":0},{"OBJECT_NAME":"ONEWEB-0360","OBJECT_ID":"2021-090H","EPOCH":"2025-08-04T08:28:08.672160","MEAN_MOTION":13.20769928,"ECCENTRICITY":0.0001734,"INCLINATION":87.929,"RA_OF_ASC_NODE":337.576,"ARG_OF_PERICENTER":100.4123,"MEAN_ANOMALY":259.7206,"EPHEMERIS_TYPE":0,"CLASSIFICATION_TYPE":"U","NORAD_CAT_ID":49286,"ELEMENT_SET_NO":999,"REV_AT_EPOCH":18802,"BSTAR":-4.5874e-5,"MEAN_MOTION_DOT":-6.0e-8,"MEAN_MOTION_DDOT":0},{"OBJECT_NAME":"ONEWEB-0361","OBJECT_ID":"2021-090J","EPOCH":"2025-08-04T15:17:15.662112","MEAN_MOTION":13.20771919,"ECCENTRICITY":0.0001991,"INCLINATION":87.929,"RA_OF_ASC_NODE":337.5146,"ARG_OF_PERICENTER":102.8583,"MEAN_ANOMALY":257.2773,"EPHEMERIS_TYPE":0,"CLASSIFICATION_TYPE":"U","NORAD_CAT_ID":49287,"ELEMENT_SET_NO":999,"REV_AT_EPOCH":18851,"BSTAR":-2.0957e-7,"MEAN_MOTION_DOT":1.3e-7,"MEAN_MOTION_DDOT":0},{"OBJECT_NAME":"ONEWEB-0362","OBJECT_ID":"2021-090K","EPOCH":"2025-08-04T17:13:50.114496","MEAN_MOTION":13.19725769,"ECCENTRICITY":0.0001706,"INCLINATION":87.9236,"RA_OF_ASC_NODE":7.8999,"ARG_OF_PERICENTER":89.5683,"MEAN_ANOMALY":270.5645,"EPHEMERIS_TYPE":0,"CLASSIFICATION_TYPE":"U","NORAD_CAT_ID":49288,"ELEMENT_SET_NO":999,"REV_AT_EPOCH":18517,"BSTAR":-1.8667e-5,"MEAN_MOTION_DOT":5.0e-8,"MEAN_MOTION_DDOT":0},{"OBJECT_NAME":"ONEWEB-0363","OBJECT_ID":"2021-090L","EPOCH":"2025-08-04T19:18:10.432224","MEAN_MOTION":13.20771442,"ECCENTRICITY":0.0002087,"INCLINATION":87.929,"RA_OF_ASC_NODE":337.4769,"ARG_OF_PERICENTER":108.7623,"MEAN_ANOMALY":251.3737,"EPHEMERIS_TYPE":0,"CLASSIFICATION_TYPE":"U","NORAD_CAT_ID":49289,"ELEMENT_SET_NO":999,"REV_AT_EPOCH":18854,"BSTAR":-0.00013442,"MEAN_MOTION_DOT":-4.2e-7,"MEAN_MOTION_DDOT":0},{"OBJECT_NAME":"ONEWEB-0364","OBJECT_ID":"2021-090M","EPOCH":"2025-08-04T14:45:26.011296","MEAN_MOTION":13.20772827,"ECCENTRICITY":0.0002021,"INCLINATION":87.9285,"RA_OF_ASC_NODE":337.5436,"ARG_OF_PERICENTER":101.6374,"MEAN_ANOMALY":258.4986,"EPHEMERIS_TYPE":0,"CLASSIFICATION_TYPE":"U","NORAD_CAT_ID":49290,"ELEMENT_SET_NO":999,"REV_AT_EPOCH":19047,"BSTAR":1.4066e-5,"MEAN_MOTION_DOT":1.9e-7,"MEAN_MOTION_DDOT":0},{"OBJECT_NAME":"ONEWEB-0365","OBJECT_ID":"2021-090N","EPOCH":"2025-08-04T17:27:28.818432","MEAN_MOTION":13.19725946,"ECCENTRICITY":0.0001866,"INCLINATION":87.9239,"RA_OF_ASC_NODE":7.8526,"ARG_OF_PERICENTER":91.5959,"MEAN_ANOMALY":268.5388,"EPHEMERIS_TYPE":0,"CLASSIFICATION_TYPE":"U","NORAD_CAT_ID":49291,"ELEMENT_SET_NO":999,"REV_AT_EPOCH":18468,"BSTAR":-3.0782e-5,"MEAN_MOTION_DOT":1.0e-8,"MEAN_MOTION_DDOT":0},{"OBJECT_NAME":"ONEWEB-0366","OBJECT_ID":"2021-090P","EPOCH":"2025-08-04T15:12:28.172160","MEAN_MOTION":13.14504383,"ECCENTRICITY":0.0001818,"INCLINATION":87.9077,"RA_OF_ASC_NODE":352.7123,"ARG_OF_PERICENTER":99.5054,"MEAN_ANOMALY":260.6281,"EPHEMERIS_TYPE":0,"CLASSIFICATION_TYPE":"U","NORAD_CAT_ID":49292,"ELEMENT_SET_NO":999,"REV_AT_EPOCH":18597,"BSTAR":-0.00039378,"MEAN_MOTION_DOT":-1.33e-6,"MEAN_MOTION_DDOT":0},{"OBJECT_NAME":"ONEWEB-0367","OBJECT_ID":"2021-090Q","EPOCH":"2025-08-04T19:15:53.931456","MEAN_MOTION":13.20771265,"ECCENTRICITY":0.0001788,"INCLINATION":87.9292,"RA_OF_ASC_NODE":337.4728,"ARG_OF_PERICENTER":92.9088,"MEAN_ANOMALY":267.225,"EPHEMERIS_TYPE":0,"CLASSIFICATION_TYPE":"U","NORAD_CAT_ID":49293,"ELEMENT_SET_NO":999,"REV_AT_EPOCH":18806,"BSTAR":-3.1898e-5,"MEAN_MOTION_DOT":0,"MEAN_MOTION_DDOT":0},{"OBJECT_NAME":"ONEWEB-0368","OBJECT_ID":"2021-090R","EPOCH":"2025-08-04T18:37:14.297088","MEAN_MOTION":13.2077137,"ECCENTRICITY":0.0002739,"INCLINATION":87.9299,"RA_OF_ASC_NODE":337.5132,"ARG_OF_PERICENTER":98.4442,"MEAN_ANOMALY":261.7002,"EPHEMERIS_TYPE":0,"CLASSIFICATION_TYPE":"U","NORAD_CAT_ID":49294,"ELEMENT_SET_NO":999,"REV_AT_EPOCH":18921,"BSTAR":-5.2528e-5,"MEAN_MOTION_DOT":-8.0e-8,"MEAN_MOTION_DDOT":0},{"OBJECT_NAME":"ONEWEB-0369","OBJECT_ID":"2021-090S","EPOCH":"2025-08-04T17:20:39.075072","MEAN_MOTION":13.19725543,"ECCENTRICITY":0.0001911,"INCLINATION":87.9241,"RA_OF_ASC_NODE":7.8846,"ARG_OF_PERICENTER":93.1266,"MEAN_ANOMALY":267.0086,"EPHEMERIS_TYPE":0,"CLASSIFICATION_TYPE":"U","NORAD_CAT_ID":49295,"ELEMENT_SET_NO":999,"REV_AT_EPOCH":18467,"BSTAR":0.00011966,"MEAN_MOTION_DOT":6.1e-7,"MEAN_MOTION_DDOT":0},{"OBJECT_NAME":"ONEWEB-0370","OBJECT_ID":"2021-090T","EPOCH":"2025-08-04T08:34:59.803968","MEAN_MOTION":13.20771263,"ECCENTRICITY":0.0001543,"INCLINATION":87.9293,"RA_OF_ASC_NODE":337.567,"ARG_OF_PERICENTER":96.0347,"MEAN_ANOMALY":264.0963,"EPHEMERIS_TYPE":0,"CLASSIFICATION_TYPE":"U","NORAD_CAT_ID":49296,"ELEMENT_SET_NO":999,"REV_AT_EPOCH":18804,"BSTAR":0.00012539,"MEAN_MOTION_DOT":6.4e-7,"MEAN_MOTION_DDOT":0},{"OBJECT_NAME":"ONEWEB-0371","OBJECT_ID":"2021-090U","EPOCH":"2025-08-04T17:32:01.230720","MEAN_MOTION":13.19725162,"ECCENTRICITY":0.0001811,"INCLINATION":87.9239,"RA_OF_ASC_NODE":7.8727,"ARG_OF_PERICENTER":91.0305,"MEAN_ANOMALY":269.1035,"EPHEMERIS_TYPE":0,"CLASSIFICATION_TYPE":"U","NORAD_CAT_ID":49297,"ELEMENT_SET_NO":999,"REV_AT_EPOCH":18471,"BSTAR":-0.00032098,"MEAN_MOTION_DOT":-1.16e-6,"MEAN_MOTION_DDOT":0},{"OBJECT_NAME":"ONEWEB-0372","OBJECT_ID":"2021-090V","EPOCH":"2025-08-04T19:13:24.093120","MEAN_MOTION":13.20783044,"ECCENTRICITY":0.0002035,"INCLINATION":87.9288,"RA_OF_ASC_NODE":337.4866,"ARG_OF_PERICENTER":96.1367,"MEAN_ANOMALY":263.9998,"EPHEMERIS_TYPE":0,"CLASSIFICATION_TYPE":"U","NORAD_CAT_ID":49298,"ELEMENT_SET_NO":999,"REV_AT_EPOCH":18807,"BSTAR":0.0010181,"MEAN_MOTION_DOT":4.27e-6,"MEAN_MOTION_DDOT":0},{"OBJECT_NAME":"ONEWEB-0373","OBJECT_ID":"2021-090W","EPOCH":"2025-08-04T08:57:41.730624","MEAN_MOTION":13.20771134,"ECCENTRICITY":0.0001846,"INCLINATION":87.929,"RA_OF_ASC_NODE":337.5826,"ARG_OF_PERICENTER":101.8463,"MEAN_ANOMALY":258.2878,"EPHEMERIS_TYPE":0,"CLASSIFICATION_TYPE":"U","NORAD_CAT_ID":49299,"ELEMENT_SET_NO":999,"REV_AT_EPOCH":18920,"BSTAR":0.00034673,"MEAN_MOTION_DOT":1.54e-6,"MEAN_MOTION_DDOT":0},{"OBJECT_NAME":"ONEWEB-0374","OBJECT_ID":"2021-090X","EPOCH":"2025-08-04T18:33:26.884512","MEAN_MOTION":13.145017,"ECCENTRICITY":0.000231,"INCLINATION":87.9068,"RA_OF_ASC_NODE":352.6635,"ARG_OF_PERICENTER":107.4984,"MEAN_ANOMALY":252.6398,"EPHEMERIS_TYPE":0,"CLASSIFICATION_TYPE":"U","NORAD_CAT_ID":49300,"ELEMENT_SET_NO":999,"REV_AT_EPOCH":18599,"BSTAR":-0.00022624,"MEAN_MOTION_DOT":-7.1e-7,"MEAN_MOTION_DDOT":0}]
