ONEWEB-0358             
1 49284U 21090F   25216.59279401  .00000056  00000+0  10507-3 0  9998
2 49284  87.9295 337.5095 0001838 103.4472 256.6867 13.20771853188769
ONEWEB-0359             
1 49285U 21090G   25216.66538704  .00000058  00000+0  10971-3 0  9998
2 49285  87.9282 337.5062 0001594 107.3246 252.8062 13.20771237188751
ONEWEB-0360             
1 49286U 21090H   25216.35287815 -.00000006  00000+0 -45874-4 0  9995
2 49286  87.9290 337.5760 0001734 100.4123 259.7206 13.20769928188020
ONEWEB-0361             
1 49287U 21090J   25216.63698683  .00000013  00000+0 -20957-6 0  9990
2 49287  87.9290 337.5146 0001991 102.8583 257.2773 13.20771919188519
ONEWEB-0362             
1 49288U 21090K   25216.71794114  .00000005  00000+0 -18667-4 0  9990
2 49288  87.9236   7.8999 0001706  89.5683 270.5645 13.19725769185174
ONEWEB-0363             
1 49289U 21090L   25216.80428741 -.00000042  00000+0 -13442-3 0  9998
2 49289  87.9290 337.4769 0002087 108.7623 251.3737 13.20771442188547
ONEWEB-0364             
1 49290U 21090M   25216.61488439  .00000019  00000+0  14066-4 0  9995
2 49290  87.9285 337.5436 0002021 101.6374 258.4986 13.20772827190475
ONEWEB-0365             
1 49291U 21090N   25216.72741688  .00000001  00000+0 -30782-4 0  9991
2 49291  87.9239   7.8526 0001866  91.5959 268.5388 13.19725946184686
ONEWEB-0366             
1 49292U 21090P   25216.63365940 -.00000133  00000+0 -39378-3 0  9991
2 49292  87.9077 352.7123 0001818  99.5054 260.6281 13.14504383185976
ONEWEB-0367             
1 49293U 21090Q   25216.80270754  .00000000  00000+0 -31898-4 0  9991
2 49293  87.9292 337.4728 0001788  92.9088 267.2250 13.20771265188061
ONEWEB-0368             
1 49294U 21090R   25216.77585992 -.00000008  00000+0 -52528-4 0  9993
2 49294  87.9299 337.5132 0002739  98.4442 261.7002 13.20771370189210
ONEWEB-0369             
1 49295U 21090S   25216.72267448  .00000061  00000+0  11966-3 0  9999
2 49295  87.9241   7.8846 0001911  93.1266 267.0086 13.19725543184679
ONEWEB-0370             
1 49296U 21090T   25216.35763662  .00000064  00000+0  12539-3 0  9998
2 49296  87.9293 337.5670 0001543  96.0347 264.0963 13.20771263188046
ONEWEB-0371             
1 49297U 21090U   25216.73056980 -.00000116  00000+0 -32098-3 0  9991
2 49297  87.9239   7.8727 0001811  91.0305 269.1035 13.19725162184715
ONEWEB-0372             
1 49298U 21090V   25216.80097330  .00000427  00000+0  10181-2 0  9995
2 49298  87.9288 337.4866 0002035  96.1367 263.9998 13.20783044188077
ONEWEB-0373             
1 49299U 21090W   25216.37339966  .00000154  00000+0  34673-3 0  9992
2 49299  87.9290 337.5826 0001846 101.8463 258.2878 13.20771134189205
ONEWEB-0374             
1 49300U 21090X   25216.77322783 -.00000071  00000+0 -22624-3 0  9991
2 49300  87.9068 352.6635 0002310 107.4984 252.6398 13.14501700185994
